[{
    "OBJECT_NAME": "COSMOS 2251 DEB",
    "OBJECT_ID": "1993-036TX",
    "EPOCH": "2025-11-21T16:54:50.241024",
    "MEAN_MOTION": 15.05594934,
    "ECCENTRICITY": 0.0038205,
    "INCLINATION": 74.0425,
    "RA_OF_ASC_NODE": 50.0763,
    "ARG_OF_PERICENTER": 273.7702,
    "MEAN_ANOMALY": 214.0154,
    "EPHEMERIS_TYPE": 0,
    "CLASSIFICATION_TYPE": "U",
    "NORAD_CAT_ID": 34478,
    "ELEMENT_SET_NO": 999,
    "REV_AT_EPOCH": 88656,
    "BSTAR": 0.0029068,
    "MEAN_MOTION_DOT": 0.00042825,
    "MEAN_MOTION_DDOT": 0
},{
    "OBJECT_NAME": "COSMOS 2251 DEB",
    "OBJECT_ID": "1993-036UA",
    "EPOCH": "2025-11-21T19:26:34.743840",
    "MEAN_MOTION": 14.32432746,
    "ECCENTRICITY": 0.0070965,
    "INCLINATION": 73.9793,
    "RA_OF_ASC_NODE": 91.7968,
    "ARG_OF_PERICENTER": 269.9713,
    "MEAN_ANOMALY": 212.8816,
    "EPHEMERIS_TYPE": 0,
    "CLASSIFICATION_TYPE": "U",
    "NORAD_CAT_ID": 34481,
    "ELEMENT_SET_NO": 999,
    "REV_AT_EPOCH": 87149,
    "BSTAR": 0.00073308,
    "MEAN_MOTION_DOT": 2.014e-5,
    "MEAN_MOTION_DDOT": 0
},{
    "OBJECT_NAME": "COSMOS 2251 DEB",
    "OBJECT_ID": "1993-036UB",
    "EPOCH": "2025-11-21T21:00:30.063744",
    "MEAN_MOTION": 14.68454144,
    "ECCENTRICITY": 0.0046405,
    "INCLINATION": 74.0379,
    "RA_OF_ASC_NODE": 263.9655,
    "ARG_OF_PERICENTER": 327.7251,
    "MEAN_ANOMALY": 96.3184,
    "EPHEMERIS_TYPE": 0,
    "CLASSIFICATION_TYPE": "U",
    "NORAD_CAT_ID": 34482,
    "ELEMENT_SET_NO": 999,
    "REV_AT_EPOCH": 87881,
    "BSTAR": 0.0026557,
    "MEAN_MOTION_DOT": 0.00015635,
    "MEAN_MOTION_DDOT": 0
},{
    "OBJECT_NAME": "COSMOS 2251 DEB",
    "OBJECT_ID": "1993-036UE",
    "EPOCH": "2025-11-15T12:01:48.254880",
    "MEAN_MOTION": 13.54642567,
    "ECCENTRICITY": 0.03855586,
    "INCLINATION": 73.9158,
    "RA_OF_ASC_NODE": 248.1262,
    "ARG_OF_PERICENTER": 281.4916,
    "MEAN_ANOMALY": 201.1061,
    "EPHEMERIS_TYPE": 0,
    "CLASSIFICATION_TYPE": "U",
    "NORAD_CAT_ID": 34544,
    "ELEMENT_SET_NO": 999,
    "REV_AT_EPOCH": 82513,
    "BSTAR": 0.00086040066,
    "MEAN_MOTION_DOT": 9.23e-6,
    "MEAN_MOTION_DDOT": 0
},{
    "OBJECT_NAME": "COSMOS 2251 DEB",
    "OBJECT_ID": "1993-036UG",
    "EPOCH": "2025-11-21T21:47:45.034368",
    "MEAN_MOTION": 14.45266742,
    "ECCENTRICITY": 0.0021195,
    "INCLINATION": 74.0311,
    "RA_OF_ASC_NODE": 288.0228,
    "ARG_OF_PERICENTER": 4.6325,
    "MEAN_ANOMALY": 26.4318,
    "EPHEMERIS_TYPE": 0,
    "CLASSIFICATION_TYPE": "U",
    "NORAD_CAT_ID": 34546,
    "ELEMENT_SET_NO": 999,
    "REV_AT_EPOCH": 87725,
    "BSTAR": 0.00073992,
    "MEAN_MOTION_DOT": 2.577e-5,
    "MEAN_MOTION_DDOT": 0
},{
    "OBJECT_NAME": "COSMOS 2251 DEB",
    "OBJECT_ID": "1993-036UH",
    "EPOCH": "2025-11-20T21:12:15.644160",
    "MEAN_MOTION": 14.71605509,
    "ECCENTRICITY": 0.0019821,
    "INCLINATION": 74.0284,
    "RA_OF_ASC_NODE": 143.2431,
    "ARG_OF_PERICENTER": 223.8554,
    "MEAN_ANOMALY": 136.1045,
    "EPHEMERIS_TYPE": 0,
    "CLASSIFICATION_TYPE": "U",
    "NORAD_CAT_ID": 34547,
    "ELEMENT_SET_NO": 999,
    "REV_AT_EPOCH": 88200,
    "BSTAR": 0.0011574,
    "MEAN_MOTION_DOT": 7.197e-5,
    "MEAN_MOTION_DDOT": 0
},{
    "OBJECT_NAME": "COSMOS 2251 DEB",
    "OBJECT_ID": "1993-036UP",
    "EPOCH": "2025-11-21T19:07:32.807136",
    "MEAN_MOTION": 14.57420785,
    "ECCENTRICITY": 0.0020003,
    "INCLINATION": 74.0261,
    "RA_OF_ASC_NODE": 231.7226,
    "ARG_OF_PERICENTER": 310.4843,
    "MEAN_ANOMALY": 105.5994,
    "EPHEMERIS_TYPE": 0,
    "CLASSIFICATION_TYPE": "U",
    "NORAD_CAT_ID": 34553,
    "ELEMENT_SET_NO": 999,
    "REV_AT_EPOCH": 87791,
    "BSTAR": 0.001442,
    "MEAN_MOTION_DOT": 6.537e-5,
    "MEAN_MOTION_DDOT": 0
},{
    "OBJECT_NAME": "COSMOS 2251 DEB",
    "OBJECT_ID": "1993-036UQ",
    "EPOCH": "2025-11-22T01:00:28.908000",
    "MEAN_MOTION": 14.37876297,
    "ECCENTRICITY": 0.0022096,
    "INCLINATION": 74.0386,
    "RA_OF_ASC_NODE": 337.1031,
    "ARG_OF_PERICENTER": 45.4399,
    "MEAN_ANOMALY": 345.9027,
    "EPHEMERIS_TYPE": 0,
    "CLASSIFICATION_TYPE": "U",
    "NORAD_CAT_ID": 34554,
    "ELEMENT_SET_NO": 999,
    "REV_AT_EPOCH": 87458,
    "BSTAR": 0.00031241,
    "MEAN_MOTION_DOT": 9.19e-6,
    "MEAN_MOTION_DDOT": 0
},{
    "OBJECT_NAME": "COSMOS 2251 DEB",
    "OBJECT_ID": "1993-036US",
    "EPOCH": "2025-11-21T23:20:03.522336",
    "MEAN_MOTION": 14.76915782,
    "ECCENTRICITY": 0.0010284,
    "INCLINATION": 74.0147,
    "RA_OF_ASC_NODE": 165.6371,
    "ARG_OF_PERICENTER": 223.8604,
    "MEAN_ANOMALY": 261.8948,
    "EPHEMERIS_TYPE": 0,
    "CLASSIFICATION_TYPE": "U",
    "NORAD_CAT_ID": 34556,
    "ELEMENT_SET_NO": 999,
    "REV_AT_EPOCH": 88022,
    "BSTAR": 0.0018887,
    "MEAN_MOTION_DOT": 0.00013292,
    "MEAN_MOTION_DDOT": 0
},{
    "OBJECT_NAME": "COSMOS 2251 DEB",
    "OBJECT_ID": "1993-036UW",
    "EPOCH": "2025-11-22T01:10:44.350752",
    "MEAN_MOTION": 14.71420147,
    "ECCENTRICITY": 0.0015981,
    "INCLINATION": 74.0162,
    "RA_OF_ASC_NODE": 182.4027,
    "ARG_OF_PERICENTER": 263.2485,
    "MEAN_ANOMALY": 219.4325,
    "EPHEMERIS_TYPE": 0,
    "CLASSIFICATION_TYPE": "U",
    "NORAD_CAT_ID": 34560,
    "ELEMENT_SET_NO": 999,
    "REV_AT_EPOCH": 87947,
    "BSTAR": 0.0018302,
    "MEAN_MOTION_DOT": 0.00011347,
    "MEAN_MOTION_DDOT": 0
},{
    "OBJECT_NAME": "COSMOS 2251 DEB",
    "OBJECT_ID": "1993-036UZ",
    "EPOCH": "2025-11-21T20:40:22.202976",
    "MEAN_MOTION": 14.46408805,
    "ECCENTRICITY": 0.0013492,
    "INCLINATION": 74.039,
    "RA_OF_ASC_NODE": 242.6818,
    "ARG_OF_PERICENTER": 337.7118,
    "MEAN_ANOMALY": 93.6908,
    "EPHEMERIS_TYPE": 0,
    "CLASSIFICATION_TYPE": "U",
    "NORAD_CAT_ID": 34563,
    "ELEMENT_SET_NO": 999,
    "REV_AT_EPOCH": 87895,
    "BSTAR": 0.00052143,
    "MEAN_MOTION_DOT": 1.849e-5,
    "MEAN_MOTION_DDOT": 0
},{
    "OBJECT_NAME": "COSMOS 2251 DEB",
    "OBJECT_ID": "1993-036VA",
    "EPOCH": "2025-11-22T00:56:18.958848",
    "MEAN_MOTION": 14.4063571,
    "ECCENTRICITY": 0.0018087,
    "INCLINATION": 74.0322,
    "RA_OF_ASC_NODE": 276.3079,
    "ARG_OF_PERICENTER": 24.7494,
    "MEAN_ANOMALY": 102.1639,
    "EPHEMERIS_TYPE": 0,
    "CLASSIFICATION_TYPE": "U",
    "NORAD_CAT_ID": 34564,
    "ELEMENT_SET_NO": 999,
    "REV_AT_EPOCH": 87708,
    "BSTAR": 0.00030296,
    "MEAN_MOTION_DOT": 9.42e-6,
    "MEAN_MOTION_DDOT": 0
},{
    "OBJECT_NAME": "COSMOS 2251 DEB",
    "OBJECT_ID": "1993-036VD",
    "EPOCH": "2025-11-22T01:46:18.181056",
    "MEAN_MOTION": 14.23988659,
    "ECCENTRICITY": 0.0074798,
    "INCLINATION": 74.0411,
    "RA_OF_ASC_NODE": 193.9729,
    "ARG_OF_PERICENTER": 272.6177,
    "MEAN_ANOMALY": 238.6769,
    "EPHEMERIS_TYPE": 0,
    "CLASSIFICATION_TYPE": "U",
    "NORAD_CAT_ID": 34567,
    "ELEMENT_SET_NO": 999,
    "REV_AT_EPOCH": 86830,
    "BSTAR": 0.00019081,
    "MEAN_MOTION_DOT": 4.25e-6,
    "MEAN_MOTION_DDOT": 0
},{
    "OBJECT_NAME": "COSMOS 2251 DEB",
    "OBJECT_ID": "1993-036VF",
    "EPOCH": "2025-11-21T19:44:37.417056",
    "MEAN_MOTION": 14.24663826,
    "ECCENTRICITY": 0.0156445,
    "INCLINATION": 73.9919,
    "RA_OF_ASC_NODE": 235.9524,
    "ARG_OF_PERICENTER": 69.2631,
    "MEAN_ANOMALY": 347.9536,
    "EPHEMERIS_TYPE": 0,
    "CLASSIFICATION_TYPE": "U",
    "NORAD_CAT_ID": 34569,
    "ELEMENT_SET_NO": 999,
    "REV_AT_EPOCH": 86670,
    "BSTAR": 0.00065002,
    "MEAN_MOTION_DOT": 1.692e-5,
    "MEAN_MOTION_DDOT": 0
}]
